LEGION 1                
1 59625U 24081A   24138.53874505  .00013319  00000+0  69237-3 0  9993
2 59625  97.5771 209.6487 0005045 114.5757 245.6002 15.16188056  2232
